norad_id,name,regime,epoch,line1,line2,inclination,eccentricity,mean_motion,raan,arg_pericenter,mean_anomaly
837,OPS 3674 (VELA 4),HAO,24041.68847269,1 00837U 64040B   24041.68847269  .00000174  00000-0  00000-0 0    19\,2 00837  47.8788 139.5467 3312489 272.8551 359.8488  0.23991710 52674,47.8788,0.3312489,0.2399171,139.5467,272.8551,359.8488
837,OPS 3674 (VELA 4),HAO,24041.69388982,1 00837U 64040B   24041.69388982  .00000174  00000-0  00000-0 0    12\,2 00837  47.8791 139.5466 3312416 272.8475   0.3190  0.23991684 52669,47.8791,0.3312416,0.23991684,139.5466,272.8475,0.319
837,OPS 3674 (VELA 4),HAO,24041.69451349,1 00837U 64040B   24041.69451349  .00000174  00000-0  00000-0 0    10\,2 00837  47.8791 139.5457 3312279 272.8461   0.3754  0.23991589 52672,47.8791,0.3312279,0.23991589,139.5457,272.8461,0.3754
837,OPS 3674 (VELA 4),HAO,24045.85573577,1 00837U 64040B   24045.85573577  .00000088  00000-0  00000-0 0    14\,2 00837  47.8879 139.4675 3321784 272.7600   0.0054  0.23986794 52677,47.8879,0.3321784,0.23986794,139.4675,272.76,0.0054
837,OPS 3674 (VELA 4),HAO,24054.18738027,1 00837U 64040B   24054.18738027  .00000006  00000-0  00000-0 0    13\,2 00837  47.9143 139.3062 3332569 272.5154   0.1997  0.23998326 52701,47.9143,0.3332569,0.23998326,139.3062,272.5154,0.1997
837,OPS 3674 (VELA 4),HAO,24058.35142179,1 00837U 64040B   24058.35142179  .00000198  00000-0  00000-0 0    15\,2 00837  47.9151 139.2413 3338157 272.2918   0.2892  0.23998384 52713,47.9151,0.3338157,0.23998384,139.2413,272.2918,0.2892
837,OPS 3674 (VELA 4),HAO,24062.51326345,1 00837U 64040B   24062.51326345  .00000253  00000-0  00000-0 0    19\,2 00837  47.9207 139.1866 3345508 272.0762   0.1736  0.23999039 52713,47.9207,0.3345508,0.23999039,139.1866,272.0762,0.1736
837,OPS 3674 (VELA 4),HAO,24066.67457973,1 00837U 64040B   24066.67457973  .00000184  00000-0  00000-0 0    15\,2 00837  47.9325 139.1292 3355603 271.8578   0.0029  0.23997181 52738,47.9325,0.3355603,0.23997181,139.1292,271.8578,0.0029
837,OPS 3674 (VELA 4),HAO,24066.67835562,1   837U 64040B   24066.67835562  .00000184  00000-0  00000+0 0  1772\,2   837  47.9330 139.1288 3355651 271.8567   0.3299  0.23997243 52326,47.933,0.3355651,0.23997243,139.1288,271.8567,0.3299
837,OPS 3674 (VELA 4),HAO,24070.83566574,1   837U 64040B   24070.83566574  .00000207  00000-0  00000+0 0  1797\,2   837  47.9400 139.0606 3367858 271.7180 359.6817  0.23988605 52338,47.94,0.3367858,0.23988605,139.0606,271.718,359.6817
837,OPS 3674 (VELA 4),HAO,24075.00364076,1 00837U 64040B   24075.00364076  .00000050  00000-0  00000-0 0    15\,2 00837  47.9469 138.9746 3375770 271.6539 359.8916  0.23987080 52759,47.9469,0.337577,0.2398708,138.9746,271.6539,359.8916
837,OPS 3674 (VELA 4),HAO,24075.00557935,1   837U 64040B   24075.00557935  .00000050  00000-0  00000+0 0  1787\,2   837  47.9464 138.9743 3375721 271.6564   0.0578  0.23987065 52342,47.9464,0.3375721,0.23987065,138.9743,271.6564,0.0578
837,OPS 3674 (VELA 4),HAO,24075.00664992,1 00837U 64040B   24075.00664992  .00000049  00000-0  00000-0 0    13\,2 00837  47.9464 138.9746 3375764 271.6549   0.1515  0.23987078 52756,47.9464,0.3375764,0.23987078,138.9746,271.6549,0.1515
837,OPS 3674 (VELA 4),HAO,24079.16965607,1   837U 64040B   24079.16965607 -.00000003  00000-0  00000+0 0  1810\,2   837  47.9679 138.8888 3381081 271.5571 359.9770  0.23996731 52353,47.9679,0.3381081,0.23996731,138.8888,271.5571,359.977
837,OPS 3674 (VELA 4),HAO,24095.82353397,1 00837U 64040B   24095.82353397  .00000373  00000-0  00000-0 0    19\,2 00837  47.9993 138.6388 3412228 270.7472 359.9663  0.23993073 52801,47.9993,0.3412228,0.23993073,138.6388,270.7472,359.9663
837,OPS 3674 (VELA 4),HAO,24099.99068387,1 00837U 64040B   24099.99068387  .00000362  00000-0  00000-0 0    11\,2 00837  48.0093 138.5619 3422705 270.6693   0.1033  0.23986946 52813,48.0093,0.3422705,0.23986946,138.5619,270.6693,0.1033
837,OPS 3674 (VELA 4),HAO,24104.15828191,1   837U 64040B   24104.15828191  .00000178  00000-0  00000+0 0  1849\,2   837  48.0242 138.4726 3429458 270.6135   0.2970  0.23991739 52413,48.0242,0.3429458,0.23991739,138.4726,270.6135,0.297
837,OPS 3674 (VELA 4),HAO,24108.32494193,1   837U 64040B   24108.32494193  .00000278  00000-0  00000+0 0  1855\,2   837  48.0420 138.3888 3434647 270.4658   0.4913  0.23998982 52420,48.042,0.3434647,0.23998982,138.3888,270.4658,0.4913
837,OPS 3674 (VELA 4),HAO,24120.81724642,1 00837U 64040B   24120.81724642  .00000550  00000-0  00000-0 0    19\,2 00837  48.0697 138.2119 3457771 269.8308   0.7272  0.23997114 52853,48.0697,0.3457771,0.23997114,138.2119,269.8308,0.7272
837,OPS 3674 (VELA 4),HAO,24124.97674445,1 00837U 64040B   24124.97674445  .00000578  00000-0  00000-0 0    15\,2 00837  48.0815 138.1506 3469899 269.6877   0.2708  0.23989037 52873,48.0815,0.3469899,0.23989037,138.1506,269.6877,0.2708
837,OPS 3674 (VELA 4),HAO,24124.98023059,1 00837U 64040B   24124.98023059  .00000578  00000-0  00000-0 0    15\,2 00837  48.0815 138.1505 3469931 269.6887   0.5714  0.23989051 52865,48.0815,0.3469931,0.23989051,138.1505,269.6887,0.5714
837,OPS 3674 (VELA 4),HAO,24129.14575353,1 00837U 64040B   24129.14575353  .00000439  00000-0  00000-0 0    13\,2 00837  48.0907 138.0681 3478017 269.6268   0.5577  0.23986910 52889,48.0907,0.3478017,0.2398691,138.0681,269.6268,0.5577
837,OPS 3674 (VELA 4),HAO,24129.14577436,1 00837U 64040B   24129.14577436  .00000439  00000-0  00000-0 0    17\,2 00837  48.0907 138.0679 3478014 269.6273   0.5591  0.23986904 52888,48.0907,0.3478014,0.23986904,138.0679,269.6273,0.5591
837,OPS 3674 (VELA 4),HAO,24133.30825333,1 00837U 64040B   24133.30825333  .00000319  00000-0  00000-0 0    19\,2 00837  48.1143 137.9808 3484038 269.5434   0.3332  0.23996673 52890,48.1143,0.3484038,0.23996673,137.9808,269.5434,0.3332
837,OPS 3674 (VELA 4),HAO,24137.47054976,1 00837U 64040B   24137.47054976  .00000496  00000-0  00000-0 0    14\,2 00837  48.1247 137.9024 3489889 269.3489   0.2137  0.23999659 52903,48.1247,0.3489889,0.23999659,137.9024,269.3489,0.2137
837,OPS 3674 (VELA 4),HAO,24149.96721631,1 00837U 64040B   24149.96721631  .00000600  00000-0  00000-0 0    17\,2 00837  48.1577 137.7396 3518200 268.7268   0.7797  0.23993981 52928,48.1577,0.35182,0.23993981,137.7396,268.7268,0.7797
837,OPS 3674 (VELA 4),HAO,24158.29109311,1 00837U 64040B   24158.29109311  .00000334  00000-0  00000-0 0    12\,2 00837  48.1798 137.5843 3536618 268.5960   0.1465  0.23990580 52948,48.1798,0.3536618,0.2399058,137.5843,268.596,0.1465
837,OPS 3674 (VELA 4),HAO,24158.29311847,1   837U 64040B   24158.29311847  .00000334  00000-0  00000+0 0  1932\,2   837  48.1799 137.5855 3536760 268.5881   0.3264  0.23990622 52544,48.1799,0.353676,0.23990622,137.5855,268.5881,0.3264
837,OPS 3674 (VELA 4),HAO,24166.62012710,1 00837U 64040B   24166.62012710  .00000507  00000-0  00000-0 0    16\,2 00837  48.2023 137.4338 3550362 268.2381   0.2600  0.23999137 52976,48.2023,0.3550362,0.23999137,137.4338,268.2381,0.26
837,OPS 3674 (VELA 4),HAO,24166.62286681,1 00837U 64040B   24166.62286681  .00000507  00000-0  00000-0 0    16\,2 00837  48.2026 137.4337 3550527 268.2370   0.4970  0.23999273 52961,48.2026,0.3550527,0.23999273,137.4337,268.237,0.497
837,OPS 3674 (VELA 4),HAO,24174.95012950,1 00837U 64040B   24174.95012950  .00000499  00000-0  00000-0 0    17\,2 00837  48.2243 137.3316 3571032 267.8232   0.5520  0.23997860 52988,48.2243,0.3571032,0.2399786,137.3316,267.8232,0.552
837,OPS 3674 (VELA 4),HAO,24187.43808357,1   837U 64040B   24187.43808357  .00000112  00000-0  00000+0 0  1986\,2   837  48.2553 137.1098 3601216 267.5542 359.8618  0.23995726 52613,48.2553,0.3601216,0.23995726,137.1098,267.5542,359.8618
837,OPS 3674 (VELA 4),HAO,24187.44034482,1 00837U 64040B   24187.44034482  .00000112  00000-0  00000-0 0    11\,2 00837  48.2551 137.1091 3601090 267.5592   0.0543  0.23995649 53010,48.2551,0.360109,0.23995649,137.1091,267.5592,0.0543
837,OPS 3674 (VELA 4),HAO,24191.59978713,1 00837U 64040B   24191.59978713  .00000223  00000-0  00000-0 0    19\,2 00837  48.2632 137.0282 3608644 267.3863 359.6561  0.23999885 53033,48.2632,0.3608644,0.23999885,137.0282,267.3863,359.6561
837,OPS 3674 (VELA 4),HAO,24204.09717635,1   837U 64040B   24204.09717635  .00000272  00000-0  00000+0 0  2007\,2   837  48.2815 136.8608 3641630 266.7931   0.2577  0.23994637 52659,48.2815,0.364163,0.23994637,136.8608,266.7931,0.2577
837,OPS 3674 (VELA 4),HAO,24216.59083534,1 00837U 64040B   24216.59083534 -.00000061  00000-0  00000-0 0    16\,2 00837  48.3088 136.6188 3670975 266.5753   0.0250  0.23998529 53085,48.3088,0.3670975,0.23998529,136.6188,266.5753,0.025
837,OPS 3674 (VELA 4),HAO,24224.91733192,1   837U 64040B   24224.91733192  .00000203  00000-0  00000+0 0  2022\,2   837  48.3100 136.4891 3689558 266.1980   0.0049  0.23999867 52704,48.31,0.3689558,0.23999867,136.4891,266.198,0.0049
837,OPS 3674 (VELA 4),HAO,24233.24668706,1   837U 64040B   24233.24668706  .00000157  00000-0  00000+0 0  2035\,2   837  48.3228 136.3704 3716110 265.8848   0.0928  0.23990110 52721,48.3228,0.371611,0.2399011,136.3704,265.8848,0.0928
837,OPS 3674 (VELA 4),HAO,24245.74480298,1 00837U 64040B   24245.74480298 -.00000034  00000-0  00000-0 0    13\,2 00837  48.3498 136.1083 3743496 265.6588   0.2842  0.23999384 53151,48.3498,0.3743496,0.23999384,136.1083,265.6588,0.2842
837,OPS 3674 (VELA 4),HAO,24249.90480216,1 00837U 64040B   24249.90480216  .00000147  00000-0  00000-0 0    19\,2 00837  48.3468 136.0416 3752914 265.4704   0.0082  0.23998450 53179,48.3468,0.3752914,0.2399845,136.0416,265.4704,0.0082
837,OPS 3674 (VELA 4),HAO,24249.90677380,1 00837U 64040B   24249.90677380  .00000147  00000-0  00000-0 0    19\,2 00837  48.3468 136.0414 3752866 265.4698   0.1784  0.23998433 53165,48.3468,0.3752866,0.23998433,136.0414,265.4698,0.1784
837,OPS 3674 (VELA 4),HAO,24254.07281688,1 00837U 64040B   24254.07281688  .00000210  00000-0  00000-0 0    16\,2 00837  48.3537 135.9850 3763957 265.3055   0.3805  0.23999871 53177,48.3537,0.3763957,0.23999871,135.985,265.3055,0.3805
